[{"OBJECT_NAME":"ONEWEB-0291","OBJECT_ID":"2021-075G","EPOCH":"2026-04-26T10:49:04.311840","MEAN_MOTION":13.17648146,"ECCENTRICITY":0.0001452,"INCLINATION":87.9191,"RA_OF_ASC_NODE":16.139,"ARG_OF_PERICENTER":82.2543,"MEAN_ANOMALY":277.8754,"EPHEMERIS_TYPE":0,"CLASSIFICATION_TYPE":"U","NORAD_CAT_ID":49081,"ELEMENT_SET_NO":999,"REV_AT_EPOCH":22679,"BSTAR":2.4455e-06,"MEAN_MOTION_DOT":1.4e-07,"MEAN_MOTION_DDOT":0.0},{"OBJECT_NAME":"ONEWEB-0293","OBJECT_ID":"2021-075H","EPOCH":"2026-04-26T11:25:30.713952","MEAN_MOTION":13.17657523,"ECCENTRICITY":0.0001779,"INCLINATION":87.9182,"RA_OF_ASC_NODE":16.1407,"ARG_OF_PERICENTER":78.0288,"MEAN_ANOMALY":282.1042,"EPHEMERIS_TYPE":0,"CLASSIFICATION_TYPE":"U","NORAD_CAT_ID":49082,"ELEMENT_SET_NO":999,"REV_AT_EPOCH":22682,"BSTAR":0.0023913000000000003,"MEAN_MOTION_DOT":9.42e-06,"MEAN_MOTION_DDOT":0.0},{"OBJECT_NAME":"ONEWEB-0294","OBJECT_ID":"2021-075J","EPOCH":"2026-04-26T09:54:41.444352","MEAN_MOTION":13.12444574,"ECCENTRICITY":0.0001595,"INCLINATION":87.8996,"RA_OF_ASC_NODE":0.9467,"ARG_OF_PERICENTER":70.0622,"MEAN_ANOMALY":290.0679,"EPHEMERIS_TYPE":0,"CLASSIFICATION_TYPE":"U","NORAD_CAT_ID":49083,"ELEMENT_SET_NO":999,"REV_AT_EPOCH":22778,"BSTAR":-0.00019175,"MEAN_MOTION_DOT":-5.6e-07,"MEAN_MOTION_DDOT":0.0},{"OBJECT_NAME":"ONEWEB-0295","OBJECT_ID":"2021-075K","EPOCH":"2026-04-26T11:24:18.368640","MEAN_MOTION":13.17650384,"ECCENTRICITY":0.0001478,"INCLINATION":87.9183,"RA_OF_ASC_NODE":16.1454,"ARG_OF_PERICENTER":84.9714,"MEAN_ANOMALY":275.1587,"EPHEMERIS_TYPE":0,"CLASSIFICATION_TYPE":"U","NORAD_CAT_ID":49084,"ELEMENT_SET_NO":999,"REV_AT_EPOCH":22678,"BSTAR":0.00018485,"MEAN_MOTION_DOT":8.5e-07,"MEAN_MOTION_DDOT":0.0},{"OBJECT_NAME":"ONEWEB-0296","OBJECT_ID":"2021-075L","EPOCH":"2026-04-26T09:25:24.032928","MEAN_MOTION":13.12442893,"ECCENTRICITY":0.0001419,"INCLINATION":87.9001,"RA_OF_ASC_NODE":0.9555,"ARG_OF_PERICENTER":83.4236,"MEAN_ANOMALY":276.7054,"EPHEMERIS_TYPE":0,"CLASSIFICATION_TYPE":"U","NORAD_CAT_ID":49085,"ELEMENT_SET_NO":999,"REV_AT_EPOCH":22778,"BSTAR":-0.0009697200000000001,"MEAN_MOTION_DOT":-3.36e-06,"MEAN_MOTION_DDOT":0.0},{"OBJECT_NAME":"ONEWEB-0297","OBJECT_ID":"2021-075M","EPOCH":"2026-04-26T10:09:19.475712","MEAN_MOTION":13.12444482,"ECCENTRICITY":0.0001684,"INCLINATION":87.8984,"RA_OF_ASC_NODE":0.9682,"ARG_OF_PERICENTER":83.6793,"MEAN_ANOMALY":276.4527,"EPHEMERIS_TYPE":0,"CLASSIFICATION_TYPE":"U","NORAD_CAT_ID":49086,"ELEMENT_SET_NO":999,"REV_AT_EPOCH":22839,"BSTAR":0.00052664,"MEAN_MOTION_DOT":2.02e-06,"MEAN_MOTION_DDOT":0.0},{"OBJECT_NAME":"ONEWEB-0298","OBJECT_ID":"2021-075N","EPOCH":"2026-04-26T11:30:34.360704","MEAN_MOTION":13.1765211,"ECCENTRICITY":0.0001853,"INCLINATION":87.9184,"RA_OF_ASC_NODE":16.1419,"ARG_OF_PERICENTER":84.4764,"MEAN_ANOMALY":275.6579,"EPHEMERIS_TYPE":0,"CLASSIFICATION_TYPE":"U","NORAD_CAT_ID":49087,"ELEMENT_SET_NO":999,"REV_AT_EPOCH":22681,"BSTAR":9.6657e-05,"MEAN_MOTION_DOT":5e-07,"MEAN_MOTION_DDOT":0.0},{"OBJECT_NAME":"ONEWEB-0299","OBJECT_ID":"2021-075P","EPOCH":"2026-04-26T06:04:46.346016","MEAN_MOTION":13.17648986,"ECCENTRICITY":0.0001681,"INCLINATION":87.9195,"RA_OF_ASC_NODE":16.162,"ARG_OF_PERICENTER":83.2801,"MEAN_ANOMALY":276.8522,"EPHEMERIS_TYPE":0,"CLASSIFICATION_TYPE":"U","NORAD_CAT_ID":49088,"ELEMENT_SET_NO":999,"REV_AT_EPOCH":22676,"BSTAR":0.00020417,"MEAN_MOTION_DOT":9.2e-07,"MEAN_MOTION_DDOT":0.0},{"OBJECT_NAME":"ONEWEB-0300","OBJECT_ID":"2021-075Q","EPOCH":"2026-04-26T09:58:20.413056","MEAN_MOTION":13.12445341,"ECCENTRICITY":0.0002023,"INCLINATION":87.8999,"RA_OF_ASC_NODE":0.9431,"ARG_OF_PERICENTER":89.8718,"MEAN_ANOMALY":270.2642,"EPHEMERIS_TYPE":0,"CLASSIFICATION_TYPE":"U","NORAD_CAT_ID":49089,"ELEMENT_SET_NO":999,"REV_AT_EPOCH":22841,"BSTAR":6.555700000000001e-06,"MEAN_MOTION_DOT":1.5e-07,"MEAN_MOTION_DDOT":0.0},{"OBJECT_NAME":"ONEWEB-0301","OBJECT_ID":"2021-075R","EPOCH":"2026-04-26T09:35:10.205088","MEAN_MOTION":13.12443461,"ECCENTRICITY":0.000207,"INCLINATION":87.8998,"RA_OF_ASC_NODE":0.9456,"ARG_OF_PERICENTER":86.0504,"MEAN_ANOMALY":274.0861,"EPHEMERIS_TYPE":0,"CLASSIFICATION_TYPE":"U","NORAD_CAT_ID":49090,"ELEMENT_SET_NO":999,"REV_AT_EPOCH":22777,"BSTAR":-0.0010077999999999999,"MEAN_MOTION_DOT":-3.5e-06,"MEAN_MOTION_DDOT":0.0},{"OBJECT_NAME":"ONEWEB-0302","OBJECT_ID":"2021-075S","EPOCH":"2026-04-26T09:15:38.818080","MEAN_MOTION":13.12441998,"ECCENTRICITY":0.0001524,"INCLINATION":87.9,"RA_OF_ASC_NODE":0.9586,"ARG_OF_PERICENTER":72.6836,"MEAN_ANOMALY":287.4459,"EPHEMERIS_TYPE":0,"CLASSIFICATION_TYPE":"U","NORAD_CAT_ID":49091,"ELEMENT_SET_NO":999,"REV_AT_EPOCH":22775,"BSTAR":-0.00046459,"MEAN_MOTION_DOT":-1.54e-06,"MEAN_MOTION_DDOT":0.0},{"OBJECT_NAME":"ONEWEB-0304","OBJECT_ID":"2021-075T","EPOCH":"2026-04-26T10:56:22.567200","MEAN_MOTION":13.17647445,"ECCENTRICITY":0.0001667,"INCLINATION":87.9181,"RA_OF_ASC_NODE":16.1492,"ARG_OF_PERICENTER":83.2626,"MEAN_ANOMALY":276.8695,"EPHEMERIS_TYPE":0,"CLASSIFICATION_TYPE":"U","NORAD_CAT_ID":49092,"ELEMENT_SET_NO":999,"REV_AT_EPOCH":22676,"BSTAR":-0.0001353,"MEAN_MOTION_DOT":-4e-07,"MEAN_MOTION_DDOT":0.0},{"OBJECT_NAME":"ONEWEB-0305","OBJECT_ID":"2021-075U","EPOCH":"2026-04-26T10:46:38.611200","MEAN_MOTION":13.17647631,"ECCENTRICITY":0.0001552,"INCLINATION":87.9191,"RA_OF_ASC_NODE":16.131,"ARG_OF_PERICENTER":91.6936,"MEAN_ANOMALY":268.4373,"EPHEMERIS_TYPE":0,"CLASSIFICATION_TYPE":"U","NORAD_CAT_ID":49093,"ELEMENT_SET_NO":999,"REV_AT_EPOCH":22679,"BSTAR":-0.00010216999999999999,"MEAN_MOTION_DOT":-2.7e-07,"MEAN_MOTION_DDOT":0.0},{"OBJECT_NAME":"ONEWEB-0308","OBJECT_ID":"2021-075V","EPOCH":"2026-04-26T05:26:19.663872","MEAN_MOTION":13.12442206,"ECCENTRICITY":0.0001787,"INCLINATION":87.8999,"RA_OF_ASC_NODE":0.9825,"ARG_OF_PERICENTER":79.2121,"MEAN_ANOMALY":280.9209,"EPHEMERIS_TYPE":0,"CLASSIFICATION_TYPE":"U","NORAD_CAT_ID":49094,"ELEMENT_SET_NO":999,"REV_AT_EPOCH":22774,"BSTAR":-6.7289e-05,"MEAN_MOTION_DOT":-1.1e-07,"MEAN_MOTION_DDOT":0.0},{"OBJECT_NAME":"ONEWEB-0309","OBJECT_ID":"2021-075W","EPOCH":"2026-04-26T10:51:29.265120","MEAN_MOTION":13.17648699,"ECCENTRICITY":0.0001528,"INCLINATION":87.918,"RA_OF_ASC_NODE":16.1431,"ARG_OF_PERICENTER":70.4095,"MEAN_ANOMALY":289.7201,"EPHEMERIS_TYPE":0,"CLASSIFICATION_TYPE":"U","NORAD_CAT_ID":49095,"ELEMENT_SET_NO":999,"REV_AT_EPOCH":22676,"BSTAR":-0.00088847,"MEAN_MOTION_DOT":-3.32e-06,"MEAN_MOTION_DDOT":0.0},{"OBJECT_NAME":"ONEWEB-0310","OBJECT_ID":"2021-075X","EPOCH":"2026-04-26T09:27:50.616576","MEAN_MOTION":13.12443626,"ECCENTRICITY":0.000175,"INCLINATION":87.8989,"RA_OF_ASC_NODE":0.9755,"ARG_OF_PERICENTER":79.2381,"MEAN_ANOMALY":280.8944,"EPHEMERIS_TYPE":0,"CLASSIFICATION_TYPE":"U","NORAD_CAT_ID":49096,"ELEMENT_SET_NO":999,"REV_AT_EPOCH":22839,"BSTAR":-0.001138,"MEAN_MOTION_DOT":-3.97e-06,"MEAN_MOTION_DDOT":0.0}]