ONEWEB-0291             
1 49081U 21075G   26116.45074435  .00000014  00000+0  24455-5 0  9994
2 49081  87.9191  16.1390 0001452  82.2543 277.8754 13.17648146226792
ONEWEB-0293             
1 49082U 21075H   26116.47604993  .00000942  00000+0  23913-2 0  9990
2 49082  87.9182  16.1407 0001779  78.0288 282.1042 13.17657523226825
ONEWEB-0294             
1 49083U 21075J   26116.41297968 -.00000056  00000+0 -19175-3 0  9999
2 49083  87.8996   0.9467 0001595  70.0622 290.0679 13.12444574227780
ONEWEB-0295             
1 49084U 21075K   26116.47521260  .00000085  00000+0  18485-3 0  9994
2 49084  87.9183  16.1454 0001478  84.9714 275.1587 13.17650384226785
ONEWEB-0296             
1 49085U 21075L   26116.39263927 -.00000336  00000+0 -96972-3 0  9997
2 49085  87.9001   0.9555 0001419  83.4236 276.7054 13.12442893227782
ONEWEB-0297             
1 49086U 21075M   26116.42314208  .00000202  00000+0  52664-3 0  9991
2 49086  87.8984   0.9682 0001684  83.6793 276.4527 13.12444482228393
ONEWEB-0298             
1 49087U 21075N   26116.47956436  .00000050  00000+0  96657-4 0  9994
2 49087  87.9184  16.1419 0001853  84.4764 275.6579 13.17652110226816
ONEWEB-0299             
1 49088U 21075P   26116.25331419  .00000092  00000+0  20417-3 0  9995
2 49088  87.9195  16.1620 0001681  83.2801 276.8522 13.17648986226762
ONEWEB-0300             
1 49089U 21075Q   26116.41551404  .00000015  00000+0  65557-5 0  9993
2 49089  87.8999   0.9431 0002023  89.8718 270.2642 13.12445341228415
ONEWEB-0301             
1 49090U 21075R   26116.39942367 -.00000350  00000+0 -10078-2 0  9993
2 49090  87.8998   0.9456 0002070  86.0504 274.0861 13.12443461227771
ONEWEB-0302             
1 49091U 21075S   26116.38586595 -.00000154  00000+0 -46459-3 0  9995
2 49091  87.9000   0.9586 0001524  72.6836 287.4459 13.12441998227755
ONEWEB-0304             
1 49092U 21075T   26116.45581675 -.00000040  00000+0 -13530-3 0  9996
2 49092  87.9181  16.1492 0001667  83.2626 276.8695 13.17647445226768
ONEWEB-0305             
1 49093U 21075U   26116.44905800 -.00000027  00000+0 -10217-3 0  9990
2 49093  87.9191  16.1310 0001552  91.6936 268.4373 13.17647631226799
ONEWEB-0308             
1 49094U 21075V   26116.22661648 -.00000011  00000+0 -67289-4 0  9991
2 49094  87.8999   0.9825 0001787  79.2121 280.9209 13.12442206227744
ONEWEB-0309             
1 49095U 21075W   26116.45242205 -.00000332  00000+0 -88847-3 0  9999
2 49095  87.9180  16.1431 0001528  70.4095 289.7201 13.17648699226765
ONEWEB-0310             
1 49096U 21075X   26116.39433584 -.00000397  00000+0 -11380-2 0  9993
2 49096  87.8989   0.9755 0001750  79.2381 280.8944 13.12443626228399
